IRIDIUM 166             
1 43570U 18061B   24252.81991316  .00001152  00000+0  40419-3 0  9997
2 43570  86.4001 326.8723 0001967  96.1173 264.0247 14.34218258320751
IRIDIUM 158             
1 43571U 18061C   24252.57891365  .00000170  00000+0  53744-4 0  9999
2 43571  86.4003 326.9820 0001974  96.6853 263.4567 14.34215929320683
IRIDIUM 165             
1 43572U 18061D   24252.74382223 -.00000189  00000+0 -74524-4 0  9998
2 43572  86.4003 326.9474 0001994  99.0012 261.1409 14.34214763320736
IRIDIUM 155             
1 43573U 18061E   24252.56623156  .00000548  00000+0  18863-3 0  9992
2 43573  86.4000 326.9229 0001948  94.7793 265.3626 14.34218197320674
IRIDIUM 154             
1 43574U 18061F   24252.75650945  .00000086  00000+0  23794-4 0  9997
2 43574  86.4003 326.9447 0002247  92.4438 267.7015 14.34218270320753
IRIDIUM 163             
1 43575U 18061G   24252.59794426  .00000218  00000+0  70626-4 0  9996
2 43575  86.4001 326.9471 0002078  92.5512 267.5921 14.34216368320700
IRIDIUM 156             
1 43576U 18061H   24252.57257404  .00000125  00000+0  37444-4 0  9993
2 43576  86.4001 326.9641 0001965 100.0420 260.0998 14.34216204320696
IRIDIUM 164             
1 43577U 18061J   24252.48377736  .00000249  00000+0  81964-4 0  9998
2 43577  86.4003 327.0315 0002338  96.1933 263.9529 14.34216317320729
